OUFTI-1                 
1 41458U 16025C   21215.79979965  .00002145  00000-0  10676-3 0  9993
2 41458  98.1498 355.8361 0156251 259.8227  98.5346 15.08875626289618
E-ST@R-II               
1 41459U 16025D   21216.05093241  .00002084  00000-0  10491-3 0  9995
2 41459  98.1479 355.1109 0158405 261.9067  96.4147 15.08282157289594
AAUSAT 4                
1 41460U 16025E   21216.04772688  .00003178  00000-0  15008-3 0  9999
2 41460  98.1488 359.2310 0144870 244.9360 113.6777 15.11456797289906
AIST-2D (RS-48)         
1 41465U 16026B   21216.20464069  .00002092  00000-0  60818-4 0  9998
2 41465  97.1012  98.6698 0010216 192.4037 266.5563 15.36497014294765
SAMSAT-218D             
1 41466U 16026C   21216.20491631  .00018549  00000-0  25471-3 0  9993
2 41466  97.1523 124.7213 0006829 109.0714  46.2388 15.57344027296261
NUSAT-1 (FRESCO)        
1 41557U 16033B   21216.21768311  .00002060  00000-0  74082-4 0  9999
2 41557  97.3943 309.8968 0014392  69.0088  14.6805 15.29683433288839
NUSAT-2 (BATATA)        
1 41558U 16033C   21216.21861293  .00002076  00000-0  70049-4 0  9999
2 41558  97.4062 313.9397 0013284  63.0968  20.4874 15.31777498289037
CARTOSAT-2C             
1 41599U 16040A   21216.20607920  .00000726  00000-0  37544-4 0  9999
2 41599  97.3961 274.5763 0013158 204.0983 240.0173 15.19283675283763
SATHYABAMASAT           
1 41600U 16040B   21215.87035895  .00002645  00000-0  10389-3 0  9999
2 41600  97.2696 271.7958 0013436 162.6286 197.5415 15.26487355284382
LAPAN-A3                
1 41603U 16040E   21216.18510803  .00000239  00000-0  14112-4 0  9990
2 41603  97.2524 261.2963 0012932 187.7872 257.3521 15.20068089283839
BIROS                   
1 41604U 16040F   21215.71645201  .00000690  00000-0  32497-4 0  9997
2 41604  97.2593 266.5788 0012458 166.4008 193.7567 15.22673511284093
SWAYAM                  
1 41607U 16040J   21215.71010831  .00002407  00000-0  95836-4 0  9999
2 41607  97.2649 270.3772 0013064 163.4563 196.7105 15.26116950284253
BEESAT-4                
1 41619U 16040W   21216.14215566  .00002282  00000-0  92023-4 0  9998
2 41619  97.2666 270.8949 0011388 154.5471 205.6331 15.25766508272282
3CAT-2                  
1 41732U 16051B   21216.24624510  .00001932  00000-0  70939-4 0  9993
2 41732  97.3767 136.1187 0012499 346.0546 166.7091 15.29095710276800
PRATHAM                 
1 41783U 16059A   21216.13036159  .00000054  00000-0  19363-4 0  9999
2 41783  97.9609 264.5941 0034961  95.5741 264.9451 14.63155407259227
ALSAT 1N                
1 41789U 16059G   21216.13044908  .00000093  00000-0  26315-4 0  9994
2 41789  97.9653 268.4015 0029700  81.3510 279.1056 14.64441395259425
LISHUI 1-01             
1 41845U 16066E   21216.04002874  .00004621  00000-0  59557-3 0  9995
2 41845  98.7338 322.0355 0265856 333.8680  24.9277 14.59836744250341
CARTOSAT-2D             
1 41948U 17008A   21215.89796529  .00000575  00000-0  30466-4 0  9998
2 41948  97.4390 275.5073 0006881  11.0698 349.0670 15.19281436247582
NAYIF-1 (EO-88)         
1 42017U 17008BX  21215.63634756  .00002512  00000-0  93368-4 0  9994
2 42017  97.3134 282.3923 0004398 311.7498  48.3365 15.28453354248462
ZHUHAI-1 02 (CAS-4B)    
1 42759U 17034B   21216.23611259  .00000531  00000-0  45173-4 0  9996
2 42759  43.0176 278.3784 0006984 101.2313 302.8216 15.10296969228379
ZHUHAI-1 01 (CAS-4A)    
1 42761U 17034D   21216.23542428  .00000581  00000-0  48044-4 0  9995
2 42761  43.0179 277.4000 0007312 103.3424   1.1893 15.10385056228374
UCLSAT                  
1 42765U 17036A   21216.09538659  .00001934  00000-0  80022-4 0  9991
2 42765  97.2464 264.1412 0011114  19.1926 340.9729 15.25079741228843
NIUSAT                  
1 42766U 17036B   21216.08615324  .00001450  00000-0  64556-4 0  9993
2 42766  97.2468 260.4011 0015245  14.8649 345.3033 15.22905806228467
CARTOSAT-2E             
1 42767U 17036C   21216.19072259  .00000641  00000-0  33655-4 0  9997
2 42767  97.5012 274.8870 0009738  51.1339  33.8698 15.19239049228199
LITUANICASAT-2          
1 42768U 17036D   21215.86716311  .00003608  00000-0  13986-3 0  9995
2 42768  97.2542 264.8756 0013333   6.2358 353.9045 15.26691899228707
AALTO-1                 
1 42775U 17036L   21215.66681901  .00001204  00000-0  54251-4 0  9998
2 42775  97.2436 260.2220 0013807  16.1016 344.0657 15.22821004228383
URSA MAIOR              
1 42776U 17036M   21215.79229106  .00001315  00000-0  58538-4 0  9993
2 42776  97.2451 260.8367 0013540  15.1729 344.9911 15.23099403228421
COMPASS 2               
1 42777U 17036N   21215.66399822  .00002722  00000-0  10844-3 0  9993
2 42777  97.2525 264.7832 0011527   9.9251 350.2214 15.25998626228612
MAX VALIER SAT          
1 42778U 17036P   21215.91616535  .00001445  00000-0  62811-4 0  9998
2 42778  97.2518 262.9659 0012125  17.8373 342.3288 15.23778915228517
PEGASUS                 
1 42784U 17036V   21215.82632965  .00001783  00000-0  74947-4 0  9998
2 42784  97.2472 263.3794 0011799  21.2677 338.9049 15.24636773228578
NUDTSAT                 
1 42787U 17036Y   21215.96756951  .00003422  00000-0  13290-3 0  9993
2 42787  97.2514 266.0830 0011022  14.4831 345.6722 15.26689868228583
SUCHAI                  
1 42788U 17036Z   21215.80017573  .00002191  00000-0  89238-4 0  9995
2 42788  97.2482 264.4060 0011153  18.7858 341.3790 15.25469473228705
SKCUBE                  
1 42789U 17036AA  21215.70658599  .00002009  00000-0  82718-4 0  9998
2 42789  97.2476 264.0045 0011126  19.9877 340.1795 15.25186581228597
VZLUSAT-1               
1 42790U 17036AB  21215.70027682  .00002712  00000-0  10599-3 0  9991
2 42790  97.2508 265.8121 0010283  15.8024 344.3534 15.26656113228693
ROBUSTA-1B              
1 42792U 17036AD  21215.86474281  .00002156  00000-0  87955-4 0  9994
2 42792  97.2479 264.5560 0010675  19.6191 340.5456 15.25436329228658
D-SAT                   
1 42794U 17036AF  21215.85426243  .00000637  00000-0  59490-4 0  9995
2 42794  97.4600 233.2240 0126959  67.8563 293.6075 14.91626110224121
NORSAT 2                
1 42828U 17042D   21216.12202561  .00000471  00000-0  51696-4 0  9992
2 42828  97.4719  84.6270 0014094 352.5421   7.5587 14.91905575220822
TECHNOSAT               
1 42829U 17042E   21216.09327213  .00000167  00000-0  21937-4 0  9998
2 42829  97.4633  83.0845 0013999 355.0094   5.0983 14.91316096220788
2017-042F               
1 42830U 17042F   21216.06189477  .00000915  00000-0  93083-4 0  9997
2 42830  97.4757  85.8693 0013781 347.2558  12.8312 14.92976543220901
FLYING LAPTOP           
1 42831U 17042G   21215.86489514  .00000713  00000-0  76683-4 0  9993
2 42831  97.4655  83.1047 0013787 356.4313   3.6803 14.91328474220759
CORVUS BC2              
1 42846U 17042X   21216.10620439  .00000275  00000-0  31993-4 0  9998
2 42846  97.4667  85.6732 0009187 349.1933  10.9088 14.92330779220941
CORVUS BC1              
1 42847U 17042Y   21216.07377264  .00000097  00000-0  14596-4 0  9992
2 42847  97.4669  85.8898 0008846 348.6525  11.4494 14.92430159220941
SIMPL                   
1 42983U 98067NF  21216.08695663  .00009703  00000-0  91786-4 0  9995
2 42983  51.6371  17.1981 0002999 165.2225 194.8859 15.67728809214879
CZ-4C R/B               
1 43012U 17072C   21215.76464270  .00000047  00000-0  21404-4 0  9990
2 43012  98.7281 232.6321 0126919 207.9166 151.5182 14.56185320197628
RADFXSAT (FOX-1B)       
1 43017U 17073E   21215.67325918  .00000573  00000-0  49009-4 0  9996
2 43017  97.7022 117.7839 0255438 146.0383 215.7481 14.79622950200108
EAGLESAT 1              
1 43018U 17073F   21215.67316196  .00000981  00000-0  78701-4 0  9999
2 43018  97.7032 118.7531 0251932 142.4301 219.4816 14.80723327200032
ECAMSAT                 
1 43019U 98067NG  21215.89960069  .00040241  00000-0  18901-3 0  9998
2 43019  51.6383 338.4029 0000684 203.5507 156.5464 15.82743958297690
INS-1C                  
1 43116U 18004F   21216.14568547  .00001830  00000-0  75325-4 0  9998
2 43116  97.4122 290.1777 0009934  42.7250 317.4758 15.25372547197913
FLOCK 3P'-3             
1 43119U 18004J   21216.13789965  .00001284  00000-0  55207-4 0  9999
2 43119  97.4107 288.9910 0011002  50.0941 310.1261 15.24417354197847
FLOCK 3P'-2             
1 43120U 18004K   21215.66460067  .00001002  00000-0  44198-4 0  9992
2 43120  97.4115 288.3020 0011096  52.3102 307.9140 15.24061021197757
FLOCK 3P'-1             
1 43121U 18004L   21215.72079549  .00004006  00000-0  15116-3 0  9995
2 43121  97.4112 290.4658 0009839  45.8328 314.3718 15.27574682197832
FLOCK 3P'-4             
1 43122U 18004M   21215.72477549  .00000969  00000-0  42809-4 0  9992
2 43122  97.4124 288.4750 0010941  54.0190 306.2061 15.24089347197760
MICROMAS-2A             
1 43131U 18004W   21215.87543465  .00003018  00000-0  11404-3 0  9993
2 43131  97.4098 291.5034 0009273  44.9315 315.2674 15.27734444198009
PICSAT                  
1 43132U 18004X   21215.99308668  .00001786  00000-0  72083-4 0  9992
2 43132  97.4076 290.1104 0010106  48.8918 311.3191 15.26072910197932
CNUSAIL-1               
1 43133U 18004Y   21215.72468089  .00001422  00000-0  59782-4 0  9996
2 43133  97.4045 288.7664 0010395  51.6521 308.5649 15.25025702197825
2018-004Z               
1 43134U 18004Z   21215.72742602  .00001856  00000-0  75654-4 0  9990
2 43134  97.4062 289.4994 0010103  51.1428 309.0710 15.25679387197860
FOX-1D (AO-92)          
1 43137U 18004AC  21216.15574848  .00001588  00000-0  65597-4 0  9993
2 43137  97.4047 289.6998 0009955  51.0225 309.1899 15.25442403197922
STEP CUBE LAB           
1 43138U 18004AD  21216.14402185  .00002713  00000-0  10423-3 0  9995
2 43138  97.4095 291.5818 0009372  48.2380 311.9658 15.27268014198035
XIAOXIANG-2             
1 43155U 18008A   21216.22484096  .00001150  00000-0  69367-4 0  9994
2 43155  97.3999 279.7533 0017842 158.0648 286.3726 15.12569390195297
